GLOBALSTAR M063         
1 26081U 00008A   24300.93191381 -.00000111  00000+0 -41970-3 0  9997
2 26081  51.9989   5.8783 0004690 222.0294 308.4852 11.86162044129893
GLOBALSTAR M062         
1 26082U 00008B   24300.79547389  .00000022  00000+0  85855-3 0  9994
2 26082  51.9855  62.1055 0006444 339.1133 185.8523 12.43452777467587
GLOBALSTAR M060         
1 26083U 00008C   24300.87913735 -.00000130  00000+0 -39253-3 0  9999
2 26083  52.0049 348.8637 0003181  17.6747 153.6249 12.17644640123949
GLOBALSTAR M064         
1 26084U 00008D   24300.85066269 -.00000036  00000+0  67537-3 0  9999
2 26084  52.0007 107.6693 0001201  10.8867 349.1991 11.88525446139353
GLOBALSTAR M065         
1 31571U 07020A   24300.89433431 -.00000170  00000+0 -36986-3 0  9994
2 31571  51.9891 216.3240 0010006 144.2880 254.3840 12.61979692803957
GLOBALSTAR M069         
1 31573U 07020C   24300.81512174 -.00000051  00000+0  31637-3 0  9995
2 31573  51.9931 173.5437 0001629  47.7290  30.4409 12.53303143805059
GLOBALSTAR M072         
1 31574U 07020D   24300.92917698 -.00000053  00000+0  28591-3 0  9995
2 31574  52.0081 267.9410 0000522  15.3192   2.8777 12.62267642803366
GLOBALSTAR M071         
1 31576U 07020F   24300.89455480 -.00000052  00000+0  28772-3 0  9999
2 31576  52.0051 177.2574 0001505  39.4993  43.5906 12.62261545466274
